{
  "links" : {
    "next" : "https://api.nasa.gov/neo/rest/v1/feed?start_date=2004-09-23&end_date=2004-09-23&detailed=true&api_key=t0TVs3DtDT2H8Oy2Zy8m2eVrNsAVKAexjcZXUckd",
    "prev" : "https://api.nasa.gov/neo/rest/v1/feed?start_date=2004-09-21&end_date=2004-09-21&detailed=true&api_key=t0TVs3DtDT2H8Oy2Zy8m2eVrNsAVKAexjcZXUckd",
    "self" : "https://api.nasa.gov/neo/rest/v1/feed?start_date=2004-09-22&end_date=2004-09-22&detailed=true&api_key=t0TVs3DtDT2H8Oy2Zy8m2eVrNsAVKAexjcZXUckd"
  },
  "element_count" : 3,
  "near_earth_objects" : {
    "2004-09-22" : [ {
      "links" : {
        "self" : "https://api.nasa.gov/neo/rest/v1/neo/3092248?api_key=t0TVs3DtDT2H8Oy2Zy8m2eVrNsAVKAexjcZXUckd"
      },
      "neo_reference_id" : "3092248",
      "name" : "(2000 AH205)",
      "nasa_jpl_url" : "http://ssd.jpl.nasa.gov/sbdb.cgi?sstr=3092248",
      "absolute_magnitude_h" : 22.5,
      "estimated_diameter" : {
        "kilometers" : {
          "estimated_diameter_min" : 0.0840533402,
          "estimated_diameter_max" : 0.1879489824
        },
        "meters" : {
          "estimated_diameter_min" : 84.0533402073,
          "estimated_diameter_max" : 187.9489824394
        },
        "miles" : {
          "estimated_diameter_min" : 0.0522283081,
          "estimated_diameter_max" : 0.1167860472
        },
        "feet" : {
          "estimated_diameter_min" : 275.7655606856,
          "estimated_diameter_max" : 616.6305395464
        }
      },
      "is_potentially_hazardous_asteroid" : false,
      "close_approach_data" : [ {
        "close_approach_date" : "2004-09-22",
        "epoch_date_close_approach" : 1095836400000,
        "relative_velocity" : {
          "kilometers_per_second" : "13.0835026168",
          "kilometers_per_hour" : "47100.6094206568",
          "miles_per_hour" : "29266.4870036298"
        },
        "miss_distance" : {
          "astronomical" : "0.3238341552",
          "lunar" : "125.9714813232",
          "kilometers" : "48444900",
          "miles" : "30102266"
        },
        "orbiting_body" : "Earth"
      } ],
      "orbital_data" : {
        "orbit_id" : "16",
        "orbit_determination_date" : "2017-04-06 09:17:09",
        "orbit_uncertainty" : "2",
        "minimum_orbit_intersection" : ".0152025",
        "jupiter_tisserand_invariant" : "5.404",
        "epoch_osculation" : "2458000.5",
        "eccentricity" : ".4058593439223195",
        "semi_major_axis" : "1.144277201711834",
        "inclination" : "2.584798951339495",
        "ascending_node_longitude" : "248.1088845400532",
        "orbital_period" : "447.0903485528543",
        "perihelion_distance" : ".6798616073598015",
        "perihelion_argument" : "117.823696692513",
        "aphelion_distance" : "1.608692796063867",
        "perihelion_time" : "2458192.752773786300",
        "mean_anomaly" : "205.1968404437924",
        "mean_motion" : ".8052063775593702",
        "equinox" : "J2000"
      }
    }, {
      "links" : {
        "self" : "https://api.nasa.gov/neo/rest/v1/neo/3709079?api_key=t0TVs3DtDT2H8Oy2Zy8m2eVrNsAVKAexjcZXUckd"
      },
      "neo_reference_id" : "3709079",
      "name" : "(2015 BR510)",
      "nasa_jpl_url" : "http://ssd.jpl.nasa.gov/sbdb.cgi?sstr=3709079",
      "absolute_magnitude_h" : 20.3,
      "estimated_diameter" : {
        "kilometers" : {
          "estimated_diameter_min" : 0.2315021222,
          "estimated_diameter_max" : 0.5176544822
        },
        "meters" : {
          "estimated_diameter_min" : 231.5021222103,
          "estimated_diameter_max" : 517.6544821978
        },
        "miles" : {
          "estimated_diameter_min" : 0.1438487052,
          "estimated_diameter_max" : 0.3216554833
        },
        "feet" : {
          "estimated_diameter_min" : 759.5214226325,
          "estimated_diameter_max" : 1698.3415313737
        }
      },
      "is_potentially_hazardous_asteroid" : false,
      "close_approach_data" : [ {
        "close_approach_date" : "2004-09-22",
        "epoch_date_close_approach" : 1095836400000,
        "relative_velocity" : {
          "kilometers_per_second" : "15.0350794249",
          "kilometers_per_hour" : "54126.2859297559",
          "miles_per_hour" : "33631.9691656308"
        },
        "miss_distance" : {
          "astronomical" : "0.3593990826",
          "lunar" : "139.8062438965",
          "kilometers" : "53765336",
          "miles" : "33408232"
        },
        "orbiting_body" : "Earth"
      } ],
      "orbital_data" : {
        "orbit_id" : "21",
        "orbit_determination_date" : "2017-04-06 08:36:02",
        "orbit_uncertainty" : "2",
        "minimum_orbit_intersection" : ".0685471",
        "jupiter_tisserand_invariant" : "5.698",
        "epoch_osculation" : "2458000.5",
        "eccentricity" : ".1499809703739357",
        "semi_major_axis" : "1.066129649520833",
        "inclination" : "23.98760896050495",
        "ascending_node_longitude" : "148.4479613875364",
        "orbital_period" : "402.0809145028167",
        "perihelion_distance" : ".9062304901412745",
        "perihelion_argument" : "224.598312985946",
        "aphelion_distance" : "1.226028808900392",
        "perihelion_time" : "2458123.435719472363",
        "mean_anomaly" : "249.930465700479",
        "mean_motion" : ".895342173714336",
        "equinox" : "J2000"
      }
    }, {
      "links" : {
        "self" : "https://api.nasa.gov/neo/rest/v1/neo/3645193?api_key=t0TVs3DtDT2H8Oy2Zy8m2eVrNsAVKAexjcZXUckd"
      },
      "neo_reference_id" : "3645193",
      "name" : "(2013 OY3)",
      "nasa_jpl_url" : "http://ssd.jpl.nasa.gov/sbdb.cgi?sstr=3645193",
      "absolute_magnitude_h" : 24.8,
      "estimated_diameter" : {
        "kilometers" : {
          "estimated_diameter_min" : 0.0291443905,
          "estimated_diameter_max" : 0.0651688382
        },
        "meters" : {
          "estimated_diameter_min" : 29.1443904535,
          "estimated_diameter_max" : 65.1688382168
        },
        "miles" : {
          "estimated_diameter_min" : 0.018109479,
          "estimated_diameter_max" : 0.0404940262
        },
        "feet" : {
          "estimated_diameter_min" : 95.6180819754,
          "estimated_diameter_max" : 213.8085311752
        }
      },
      "is_potentially_hazardous_asteroid" : false,
      "close_approach_data" : [ {
        "close_approach_date" : "2004-09-22",
        "epoch_date_close_approach" : 1095836400000,
        "relative_velocity" : {
          "kilometers_per_second" : "24.1608756217",
          "kilometers_per_hour" : "86979.1522380631",
          "miles_per_hour" : "54045.4626781454"
        },
        "miss_distance" : {
          "astronomical" : "0.4988006352",
          "lunar" : "194.0334472656",
          "kilometers" : "74619512",
          "miles" : "46366416"
        },
        "orbiting_body" : "Earth"
      } ],
      "orbital_data" : {
        "orbit_id" : "9",
        "orbit_determination_date" : "2017-04-06 08:45:17",
        "orbit_uncertainty" : "7",
        "minimum_orbit_intersection" : ".00636869",
        "jupiter_tisserand_invariant" : "6.987",
        "epoch_osculation" : "2458000.5",
        "eccentricity" : ".3438975150905612",
        "semi_major_axis" : ".8344594336431327",
        "inclination" : "2.304434117295809",
        "ascending_node_longitude" : "107.2553630500662",
        "orbital_period" : "278.4237445317889",
        "perihelion_distance" : ".5474909079693823",
        "perihelion_argument" : "45.70486167692078",
        "aphelion_distance" : "1.121427959316883",
        "perihelion_time" : "2458073.188684271239",
        "mean_anomaly" : "266.0140277128618",
        "mean_motion" : "1.292993169836839",
        "equinox" : "J2000"
      }
    } ]
  }
}